GLOBALSTAR M069         
1 31573U 07020C   26201.30172442 -.00000053  00000+0  36132-3 0  9998
2 31573  52.0014 158.3977 0001522 221.2256 303.6484 12.23472403882850
GLOBALSTAR M072         
1 31574U 07020D   26201.20898610 -.00000091  00000+0 -95288-4 0  9991
2 31574  51.9951  12.3323 0001649  44.7550 126.2120 11.91658745878915
GLOBALSTAR M066         
1 32265U 07048C   26200.75662172 -.00000039  00000+0  46950-3 0  9992
2 32265  51.9612 324.4163 0005539 110.8827  54.0199 12.30390020864237
GLOBALSTAR M079         
1 37188U 10054A   26201.18044230 -.00000106  00000+0 -12522-4 0  9994
2 37188  52.0057   8.2335 0001124  85.7939  86.4029 12.62266428726719
GLOBALSTAR M074         
1 37189U 10054B   26200.88838347 -.00000106  00000+0 -11119-4 0  9992
2 37189  52.0035   8.3830 0000854  99.8307  64.4636 12.62262061727283
GLOBALSTAR M076         
1 37190U 10054C   26201.23308215 -.00000094  00000+0  54677-4 0  9991
2 37190  52.0050   7.5399 0001091  98.8277  72.5004 12.62262546727043
GLOBALSTAR M077         
1 37191U 10054D   26201.00659339 -.00000098  00000+0 -37162-3 0  9997
2 37191  51.9961  95.9950 0002181 233.9275 225.5768 11.67547200724971
GLOBALSTAR M075         
1 37192U 10054E   26201.00363302 -.00000102  00000+0  76658-5 0  9990
2 37192  51.9955  50.2739 0000786  71.7784  77.0132 12.62267915726083
GLOBALSTAR M073         
1 37193U 10054F   26201.29149275 -.00000098  00000+0  32575-4 0  9996
2 37193  52.0081 323.5244 0000998 104.2906 271.5163 12.62266925728117
GLOBALSTAR M083         
1 37739U 11033A   26201.22937385 -.00000090  00000+0  76341-4 0  9991
2 37739  51.9855 271.8981 0000686 111.4539 283.1886 12.62264366697123
GLOBALSTAR M088         
1 37740U 11033B   26201.30542031 -.00000098  00000+0  30622-4 0  9992
2 37740  52.0191 178.1717 0000131  38.5229 100.6158 12.62269494692673
GLOBALSTAR M091         
1 37741U 11033C   26201.24486061 -.00000085  00000+0  10248-3 0  9993
2 37741  51.9988 141.2728 0000546  32.9059 131.4356 12.62264293693459
GLOBALSTAR M085         
1 37742U 11033D   26201.06769323 -.00000089  00000+0  83579-4 0  9991
2 37742  52.0128  93.1334 0000872  49.4363  89.4416 12.62264455693942
GLOBALSTAR M081         
1 37743U 11033E   26201.09480976 -.00000091  00000+0  73001-4 0  9991
2 37743  51.9960  95.4494 0000752  61.8591  80.1790 12.62265367694098
GLOBALSTAR M089         
1 37744U 11033F   26201.06019925 -.00000105  00000+0 -56938-5 0  9999
2 37744  51.9941  49.7070 0000724  95.1052  70.7259 12.62267629694932
GLOBALSTAR M084         
1 38040U 11080A   26201.19930170 -.00000088  00000+0  85879-4 0  9993
2 38040  52.0011 276.7843 0000718 138.8712 239.1082 12.62263698672936
GLOBALSTAR M080         
1 38041U 11080B   26201.25333836 -.00000094  00000+0  56610-4 0  9995
2 38041  52.0060 278.3498 0000300  71.9505 321.3937 12.62257606673069
GLOBALSTAR M082         
1 38042U 11080C   26201.02532329 -.00000098  00000+0  34141-4 0  9998
2 38042  52.0052 234.5472 0000189  60.1626 306.6042 12.62264357673745
GLOBALSTAR M092         
1 38043U 11080D   26201.31931571 -.00000083  00000+0  11415-3 0  9995
2 38043  52.0105 324.0500 0000738 111.9825 270.8003 12.62267930672230
GLOBALSTAR M090         
1 38044U 11080E   26200.27627958 -.00000098  00000+0  30166-4 0  9992
2 38044  52.0097 230.7931 0000390  84.5649 355.6327 12.62269627673760
GLOBALSTAR M086         
1 38045U 11080F   26200.36181826 -.00000106  00000+0 -14247-4 0  9995
2 38045  51.9874 230.4091 0001434 117.6917 255.3965 12.62287883673726
GLOBALSTAR M097         
1 39072U 13005A   26201.10344019 -.00000100  00000+0  19913-4 0  9991
2 39072  52.0033 143.1347 0000537  45.2997 314.7913 12.62271277621060
GLOBALSTAR M093         
1 39073U 13005B   26201.23506305 -.00000085  00000+0  10529-3 0  9999
2 39073  52.0098 136.0940 0000768  51.3390 308.7545 12.62266397621031
GLOBALSTAR M094         
1 39074U 13005C   26200.99737041 -.00000098  00000+0  32314-4 0  9996
2 39074  51.9969  50.9021 0001040  70.4392 289.6587 12.62264286622612
GLOBALSTAR M096         
1 39075U 13005D   26201.16926256 -.00000087  00000+0  94130-4 0  9997
2 39075  52.0076  99.2062 0000829  51.6907 308.4034 12.62265831621558
GLOBALSTAR M078         
1 39076U 13005E   26201.14240656 -.00000107  00000+0 -19128-4 0  9997
2 39076  51.9847 183.2524 0000952 352.4849   7.6003 12.62260097620174
GLOBALSTAR M095         
1 39077U 13005F   26201.08989124 -.00000108  00000+0 -24998-4 0  9993
2 39077  52.0054 181.0622 0000566  21.0645 339.0245 12.62264082620028
GLOBALSTAR M087         
1 52888U 22064A   26201.26134963 -.00000084  00000+0  10867-3 0  9997
2 52888  52.0016 321.7609 0000898  90.8689 269.2281 12.62269453195319
