OBJECT_NAME,OBJECT_ID,EPOCH,MEAN_MOTION,ECCENTRICITY,INCLINATION,RA_OF_ASC_NODE,ARG_OF_PERICENTER,MEAN_ANOMALY,EPHEMERIS_TYPE,CLASSIFICATION_TYPE,NORAD_CAT_ID,ELEMENT_SET_NO,REV_AT_EPOCH,BSTAR,MEAN_MOTION_DOT,MEAN_MOTION_DDOT
GLOBALSTAR M069,2007-020C,2026-07-20T07:14:28.989888,12.23472403,.00015221,52.0014,158.3977,221.2256,303.6484,0,U,31573,999,88285,.36131564E-3,-.53E-6,0
GLOBALSTAR M072,2007-020D,2026-07-20T05:00:56.399040,11.91658745,.00016499,51.9951,12.3323,44.7550,126.2120,0,U,31574,999,87891,-.95288145E-4,-.91E-6,0
GLOBALSTAR M066,2007-048C,2026-07-19T18:09:32.116608,12.30390020,.00055397,51.9612,324.4163,110.8827,54.0199,0,U,32265,999,86423,.46950141E-3,-.39E-6,0
GLOBALSTAR M079,2010-054A,2026-07-20T04:19:50.214720,12.62266428,.0001124,52.0057,8.2335,85.7939,86.4029,0,U,37188,999,72671,-.12521544E-4,-.106E-5,0
GLOBALSTAR M074,2010-054B,2026-07-19T21:19:16.331808,12.62262061,.00008549,52.0035,8.3830,99.8307,64.4636,0,U,37189,999,72728,-.11119237E-4,-.106E-5,0
GLOBALSTAR M076,2010-054C,2026-07-20T05:35:38.297760,12.62262546,.0001091,52.0050,7.5399,98.8277,72.5004,0,U,37190,999,72704,.54677198E-4,-.94E-6,0
GLOBALSTAR M077,2010-054D,2026-07-20T00:09:29.668896,11.67547200,.00021814,51.9961,95.9950,233.9275,225.5768,0,U,37191,999,72497,-.3716211E-3,-.98E-6,0
GLOBALSTAR M075,2010-054E,2026-07-20T00:05:13.892928,12.62267915,.00007869,51.9955,50.2739,71.7784,77.0132,0,U,37192,999,72608,.7665834E-5,-.102E-5,0
GLOBALSTAR M073,2010-054F,2026-07-20T06:59:44.973600,12.62266925,.00009985,52.0081,323.5244,104.2906,271.5163,0,U,37193,999,72811,.32574815E-4,-.98E-6,0
GLOBALSTAR M083,2011-033A,2026-07-20T05:30:17.900640,12.62264366,.00006861,51.9855,271.8981,111.4539,283.1886,0,U,37739,999,69712,.76340963E-4,-.9E-6,0
GLOBALSTAR M088,2011-033B,2026-07-20T07:19:48.314784,12.62269494,.00001317,52.0191,178.1717,38.5229,100.6158,0,U,37740,999,69267,.30622093E-4,-.98E-6,0
GLOBALSTAR M091,2011-033C,2026-07-20T05:52:35.956704,12.62264293,.00005466,51.9988,141.2728,32.9059,131.4356,0,U,37741,999,69345,.10247719E-3,-.85E-6,0
GLOBALSTAR M085,2011-033D,2026-07-20T01:37:28.695072,12.62264455,.00008724,52.0128,93.1334,49.4363,89.4416,0,U,37742,999,69394,.83578628E-4,-.89E-6,0
GLOBALSTAR M081,2011-033E,2026-07-20T02:16:31.563264,12.62265367,.00007523,51.9960,95.4494,61.8591,80.1790,0,U,37743,999,69409,.73001295E-4,-.91E-6,0
GLOBALSTAR M089,2011-033F,2026-07-20T01:26:41.215200,12.62267629,.00007248,51.9941,49.7070,95.1052,70.7259,0,U,37744,999,69493,-.5693795E-5,-.105E-5,0
GLOBALSTAR M084,2011-080A,2026-07-20T04:46:59.666880,12.62263698,.00007183,52.0011,276.7843,138.8712,239.1082,0,U,38040,999,67293,.85879219E-4,-.88E-6,0
GLOBALSTAR M080,2011-080B,2026-07-20T06:04:48.434304,12.62257606,.00003005,52.0060,278.3498,71.9505,321.3937,0,U,38041,999,67306,.5661006E-4,-.94E-6,0
GLOBALSTAR M082,2011-080C,2026-07-20T00:36:27.932256,12.62264357,.00001893,52.0052,234.5472,60.1626,306.6042,0,U,38042,999,67374,.34140719E-4,-.98E-6,0
GLOBALSTAR M092,2011-080D,2026-07-20T07:39:48.877344,12.62267930,.00007384,52.0105,324.0500,111.9825,270.8003,0,U,38043,999,67223,.11414509E-3,-.83E-6,0
GLOBALSTAR M090,2011-080E,2026-07-19T06:37:50.555712,12.62269627,.00003901,52.0097,230.7931,84.5649,355.6327,0,U,38044,999,67376,.30166293E-4,-.98E-6,0
GLOBALSTAR M086,2011-080F,2026-07-19T08:41:01.097664,12.62287883,.0001434,51.9874,230.4091,117.6917,255.3965,0,U,38045,999,67372,-.14247227E-4,-.106E-5,0
GLOBALSTAR M097,2013-005A,2026-07-20T02:28:57.232416,12.62271277,.00005373,52.0033,143.1347,45.2997,314.7913,0,U,39072,999,62106,.19912644E-4,-.1E-5,0
GLOBALSTAR M093,2013-005B,2026-07-20T05:38:29.447520,12.62266397,.00007687,52.0098,136.0940,51.3390,308.7545,0,U,39073,999,62103,.10528857E-3,-.85E-6,0
GLOBALSTAR M094,2013-005C,2026-07-19T23:56:12.803424,12.62264286,.00010404,51.9969,50.9021,70.4392,289.6587,0,U,39074,999,62261,.32314136E-4,-.98E-6,0
GLOBALSTAR M096,2013-005D,2026-07-20T04:03:44.285184,12.62265831,.00008297,52.0076,99.2062,51.6907,308.4034,0,U,39075,999,62155,.94129918E-4,-.87E-6,0
GLOBALSTAR M078,2013-005E,2026-07-20T03:25:03.926784,12.62260097,.00009522,51.9847,183.2524,352.4849,7.6003,0,U,39076,999,62017,-.19127733E-4,-.107E-5,0
GLOBALSTAR M095,2013-005F,2026-07-20T02:09:26.603136,12.62264082,.0000566,52.0054,181.0622,21.0645,339.0245,0,U,39077,999,62002,-.24997603E-4,-.108E-5,0
GLOBALSTAR M087,2022-064A,2026-07-20T06:16:20.608032,12.62269453,.00008989,52.0016,321.7609,90.8689,269.2281,0,U,52888,999,19531,.10867478E-3,-.84E-6,0
